CORVUS BC4              
1 43767U 18099K   26068.65923737  .00005714  00000+0  33980-3 0  9990
2 43767  97.4206 114.5457 0008046 356.5821   3.5354 15.11615710397368
STARLINK-3200           
1 49753U 21115AF  26068.52424699 -.00000301  00000+0 -79507-6 0  9990
2 49753  53.2163 149.8673 0001754  69.5833 290.5348 15.08835813235518
