[{"OBJECT_NAME":"CORVUS BC4","OBJECT_ID":"2018-099K","EPOCH":"2026-03-09T15:49:18.108768","MEAN_MOTION":15.1161571,"ECCENTRICITY":0.00080458,"INCLINATION":97.4206,"RA_OF_ASC_NODE":114.5457,"ARG_OF_PERICENTER":356.5821,"MEAN_ANOMALY":3.5354,"EPHEMERIS_TYPE":0,"CLASSIFICATION_TYPE":"U","NORAD_CAT_ID":43767,"ELEMENT_SET_NO":999,"REV_AT_EPOCH":39736,"BSTAR":0.00033979895,"MEAN_MOTION_DOT":5.714e-5,"MEAN_MOTION_DDOT":0},{"OBJECT_NAME":"STARLINK-3200","OBJECT_ID":"2021-115AF","EPOCH":"2026-03-09T12:34:54.939936","MEAN_MOTION":15.08835813,"ECCENTRICITY":0.00017546,"INCLINATION":53.2163,"RA_OF_ASC_NODE":149.8673,"ARG_OF_PERICENTER":69.5833,"MEAN_ANOMALY":290.5348,"EPHEMERIS_TYPE":0,"CLASSIFICATION_TYPE":"U","NORAD_CAT_ID":49753,"ELEMENT_SET_NO":999,"REV_AT_EPOCH":23551,"BSTAR":-7.9507e-7,"MEAN_MOTION_DOT":-3.01e-6,"MEAN_MOTION_DDOT":0}]
